IRIDIUM 39              
1 25042U 97069D   25174.34305155  .00000384  00000+0  95342-4 0  9990
2 25042  86.3925 208.4932 0015561 288.9498  71.0019 14.49225248449851
IRIDIUM 38              
1 25043U 97069E   25174.43103851  .00000256  00000+0  78002-4 0  9992
2 25043  86.3960 230.5286 0004230  86.1274 274.0407 14.38121751446855
IRIDIUM 42              
1 25077U 97077A   25174.44490937  .00000290  00000+0  92438-4 0  9990
2 25077  86.3962 236.6999 0003084  93.7024 266.4525 14.36356445442091
IRIDIUM 44              
1 25078U 97077B   25174.52142032  .00000269  00000+0  78745-4 0  9991
2 25078  86.3968 218.5788 0003155  55.3738 304.7758 14.40246193444648
IRIDIUM 45              
1 25104U 97082A   25174.36581145  .00009035  00000+0  32289-3 0  9993
2 25104  86.3586  44.8940 0114072 309.3797  49.7385 15.22587062452984
IRIDIUM 24              
1 25105U 97082B   25174.48641371  .00000333  00000+0  95133-4 0  9995
2 25105  86.3900  77.6298 0013447  61.9287 298.3271 14.42103911444125
IRIDIUM 51              
1 25262U 98018A   25174.39928965  .00019864  00000+0  43717-3 0  9995
2 25262  86.3837  52.7577 0083848 224.9457 134.4990 15.40073920447984
IRIDIUM 57              
1 25273U 98019B   25174.37412207  .00000239  00000+0  75777-4 0  9991
2 25273  86.3976 142.6704 0002365  86.7035 273.4432 14.35896713425675
